     3.04           N: GNSS NAV DATA    G: GPS              RINEX VERSION / TYPE
cnvtToRINEX 3.14.0  convertToRINEX OPR  20250615 162120 UTC PGM / RUN BY / DATE 
----------------------------------------------------------- COMMENT             
GPSA   0.1583D-07  0.2235D-07 -0.1192D-06 -0.1192D-06       IONOSPHERIC CORR    
GPSB   0.1167D+06  0.1638D+06 -0.1311D+06 -0.4588D+06       IONOSPHERIC CORR    
GPUT  0.9313225746D-09-0.177635684D-14 233472 2371          TIME SYSTEM CORR    
    18                                                      LEAP SECONDS        
                                                            END OF HEADER       
G18 2025 06 15 10 00 00-0.610520131886D-03 0.591171556152D-11 0.000000000000D+00
     0.122000000000D+03 0.883437500000D+02 0.410124226177D-08-0.561896953698D+00
     0.444427132607D-05 0.520367058925D-02 0.551715493202D-05 0.515369308281D+04
     0.360000000000D+05 0.111758708954D-06 0.143538275869D+01-0.745058059692D-08
     0.973346676276D+00 0.281687500000D+03-0.295806836047D+01-0.801319092442D-08
    -0.264296723305D-10 0.100000000000D+01 0.237100000000D+04 0.000000000000D+00
     0.200000000000D+01 0.000000000000D+00-0.838190317154D-08 0.890000000000D+03
     0.305280000000D+05 0.400000000000D+01 0.000000000000D+00 0.000000000000D+00
G23 2025 06 15 10 00 00 0.494696199894D-03 0.636646291241D-11 0.000000000000D+00
     0.129000000000D+03-0.383437500000D+02 0.391623455546D-08-0.164608598067D+01
    -0.190921127796D-05 0.527313363273D-02 0.250712037086D-05 0.515365340805D+04
     0.360000000000D+05-0.316649675369D-07 0.243945837739D+01-0.119209289551D-06
     0.984697220660D+00 0.345750000000D+03-0.284953111077D+01-0.796140305296D-08
    -0.471448209139D-10 0.100000000000D+01 0.237100000000D+04 0.000000000000D+00
     0.200000000000D+01 0.000000000000D+00-0.838190317154D-08 0.129000000000D+03
     0.305280000000D+05 0.400000000000D+01 0.000000000000D+00 0.000000000000D+00
G10 2025 06 15 10 00 00-0.454465858638D-03-0.110276232590D-10 0.000000000000D+00
     0.690000000000D+02-0.439062500000D+02 0.381480175895D-08-0.284041532590D+01
    -0.224262475967D-05 0.101758638630D-01 0.223144888878D-05 0.515365046692D+04
     0.360000000000D+05 0.223517417908D-07 0.247029733565D+01-0.111758708954D-06
     0.989639800573D+00 0.351062500000D+03-0.231553858944D+01-0.780925385820D-08
    -0.639312344211D-10 0.100000000000D+01 0.237100000000D+04 0.000000000000D+00
     0.200000000000D+01 0.000000000000D+00 0.232830643654D-08 0.690000000000D+02
     0.305280000000D+05 0.400000000000D+01 0.000000000000D+00 0.000000000000D+00
G27 2025 06 15 10 00 00-0.244122929871D-04 0.454747350886D-12 0.000000000000D+00
     0.430000000000D+02 0.406562500000D+02 0.461554939902D-08 0.151163113008D+01
     0.213272869587D-05 0.134538770653D-01 0.101588666439D-04 0.515369770241D+04
     0.360000000000D+05-0.320374965668D-06 0.356463643936D+00 0.968575477600D-07
     0.956766717631D+00 0.185468750000D+03 0.849399509813D+00-0.801747681723D-08
    -0.457876215239D-09 0.100000000000D+01 0.237100000000D+04 0.000000000000D+00
     0.200000000000D+01 0.000000000000D+00 0.232830643654D-08 0.430000000000D+02
     0.305280000000D+05 0.400000000000D+01 0.000000000000D+00 0.000000000000D+00
G16 2025 06 15 09 59 44 0.386834144592D-04 0.841282599140D-11 0.000000000000D+00
     0.150000000000D+02-0.684375000000D+01 0.492127641949D-08 0.243166662262D+01
    -0.512227416039D-06 0.144483692711D-01 0.638887286186D-05 0.515374395943D+04
     0.359840000000D+05-0.670552253723D-07-0.591664693118D+00-0.253319740295D-06
     0.959467327311D+00 0.256437500000D+03 0.886368166506D+00-0.786925635754D-08
    -0.221437795202D-09 0.100000000000D+01 0.237100000000D+04 0.000000000000D+00
     0.200000000000D+01 0.000000000000D+00-0.102445483208D-07 0.150000000000D+02
     0.305280000000D+05 0.400000000000D+01 0.000000000000D+00 0.000000000000D+00
G 8 2025 06 15 10 00 00 0.526012852788D-03 0.216004991671D-11 0.000000000000D+00
     0.990000000000D+02 0.408437500000D+02 0.486555981295D-08 0.138232614464D+01
     0.240094959736D-05 0.104908647481D-01 0.983849167824D-05 0.515357545853D+04
     0.360000000000D+05 0.149011611938D-07 0.326709139536D+00 0.204890966415D-06
     0.947689053476D+00 0.183718750000D+03 0.456603089934D+00-0.814176770873D-08
    -0.568237955106D-09 0.100000000000D+01 0.237100000000D+04 0.000000000000D+00
     0.280000000000D+01 0.000000000000D+00 0.465661287308D-08 0.990000000000D+02
     0.307860000000D+05 0.400000000000D+01 0.000000000000D+00 0.000000000000D+00
G 2 2025 06 15 10 00 00-0.145007856190D-03 0.909494701773D-11 0.000000000000D+00
     0.860000000000D+02 0.115093750000D+03 0.428303554848D-08 0.182900681277D+01
     0.591948628426D-05 0.164065180579D-01 0.553950667381D-05 0.515369995117D+04
     0.360000000000D+05 0.281259417534D-06 0.132967416789D+01 0.745058059692D-07
     0.965355364846D+00 0.264875000000D+03-0.974118220734D+00-0.786389899153D-08
    -0.130362572982D-09 0.100000000000D+01 0.237100000000D+04 0.000000000000D+00
     0.200000000000D+01 0.000000000000D+00-0.176951289177D-07 0.860000000000D+02
     0.321780000000D+05 0.400000000000D+01 0.000000000000D+00 0.000000000000D+00
